{"type": "FeatureCollection", "features": [ {"type": "Feature", "properties": {"norad_id": 29906, "name": "FENGYUN 1C DEB", "group": "fengyun-1c-debris", "lat": -80.26208980368855, "lon": -146.70264470807908, "alt_km": 752.153918873827, "timestamp": "2025-12-18T23:35:49.332483+00:00", "meta": {"OBJECT_NAME": "FENGYUN 1C DEB", "OBJECT_ID": "1999-025HC", "EPOCH": "2025-12-18T05:48:50.058720", "MEAN_MOTION": 14.49733287, "ECCENTRICITY": 0.00367712, "INCLINATION": 98.7059, "RA_OF_ASC_NODE": 95.7671, "ARG_OF_PERICENTER": 133.1155, "MEAN_ANOMALY": 227.3124, "EPHEMERIS_TYPE": 0, "CLASSIFICATION_TYPE": "U", "NORAD_CAT_ID": 29906, "ELEMENT_SET_NO": 999, "REV_AT_EPOCH": 98237, "BSTAR": 0.0018771589, "MEAN_MOTION_DOT": 7.25e-05, "MEAN_MOTION_DDOT": 0}, "tle": {"line1": "1 29906U 99025HC  25352.24224605  .00007250  00000+0  18772-2 0  9993", "line2": "2 29906  98.7059  95.7671 0036771 133.1155 227.3124 14.49733287982372"}}, "geometry": {"type": "Point", "coordinates": [-146.70264470807908, -80.26208980368855]}}, {"type": "Feature", "properties": {"norad_id": 29907, "name": "FENGYUN 1C DEB", "group": "fengyun-1c-debris", "lat": -77.88576458657947, "lon": 108.14474954076938, "alt_km": 818.2733138781741, "timestamp": "2025-12-18T23:35:49.332494+00:00", "meta": {"OBJECT_NAME": "FENGYUN 1C DEB", "OBJECT_ID": "1999-025HD", "EPOCH": "2025-12-18T10:26:28.929984", "MEAN_MOTION": 14.11665033, "ECCENTRICITY": 0.0084405, "INCLINATION": 99.1117, "RA_OF_ASC_NODE": 59.1977, "ARG_OF_PERICENTER": 233.599, "MEAN_ANOMALY": 139.5642, "EPHEMERIS_TYPE": 0, "CLASSIFICATION_TYPE": "U", "NORAD_CAT_ID": 29907, "ELEMENT_SET_NO": 999, "REV_AT_EPOCH": 96679, "BSTAR": 0.0012796936, "MEAN_MOTION_DOT": 2.361e-05, "MEAN_MOTION_DDOT": 0}, "tle": {"line1": "1 29907U 99025HD  25352.43505706  .00002361  00000+0  12797-2 0  9998", "line2": "2 29907  99.1117  59.1977 0084405 233.5990 139.5642 14.11665033966794"}}, "geometry": {"type": "Point", "coordinates": [108.14474954076938, -77.88576458657947]}}, {"type": "Feature", "properties": {"norad_id": 29909, "name": "FENGYUN 1C DEB", "group": "fengyun-1c-debris", "lat": 73.02237270796779, "lon": -53.15641870725788, "alt_km": 710.3849056558929, "timestamp": "2025-12-18T23:35:49.332504+00:00", "meta": {"OBJECT_NAME": "FENGYUN 1C DEB", "OBJECT_ID": "1999-025HF", "EPOCH": "2025-12-18T13:15:58.452768", "MEAN_MOTION": 14.5521652, "ECCENTRICITY": 0.00381497, "INCLINATION": 98.6351, "RA_OF_ASC_NODE": 96.5482, "ARG_OF_PERICENTER": 356.8277, "MEAN_ANOMALY": 13.6808, "EPHEMERIS_TYPE": 0, "CLASSIFICATION_TYPE": "U", "NORAD_CAT_ID": 29909, "ELEMENT_SET_NO": 999, "REV_AT_EPOCH": 98490, "BSTAR": 0.0015099163, "MEAN_MOTION_DOT": 6.551e-05, "MEAN_MOTION_DDOT": 0}, "tle": {"line1": "1 29909U 99025HF  25352.55275987  .00006551  00000+0  15099-2 0  9991", "line2": "2 29909  98.6351  96.5482 0038149 356.8277  13.6808 14.55216520984907"}}, "geometry": {"type": "Point", "coordinates": [-53.15641870725788, 73.02237270796779]}}, {"type": "Feature", "properties": {"norad_id": 29911, "name": "FENGYUN 1C DEB", "group": "fengyun-1c-debris", "lat": 24.78997402828955, "lon": -139.94824103445404, "alt_km": 809.9557804370688, "timestamp": "2025-12-18T23:35:49.332515+00:00", "meta": {"OBJECT_NAME": "FENGYUN 1C DEB", "OBJECT_ID": "1999-025HH", "EPOCH": "2025-12-18T09:25:00.549408", "MEAN_MOTION": 14.18871199, "ECCENTRICITY": 0.00274404, "INCLINATION": 98.7152, "RA_OF_ASC_NODE": 35.4086, "ARG_OF_PERICENTER": 135.319, "MEAN_ANOMALY": 243.0773, "EPHEMERIS_TYPE": 0, "CLASSIFICATION_TYPE": "U", "NORAD_CAT_ID": 29911, "ELEMENT_SET_NO": 999, "REV_AT_EPOCH": 97511, "BSTAR": 0.00060083757, "MEAN_MOTION_DOT": 1.212e-05, "MEAN_MOTION_DDOT": 0}, "tle": {"line1": "1 29911U 99025HH  25352.39236747  .00001212  00000+0  60084-3 0  9991", "line2": "2 29911  98.7152  35.4086 0027440 135.3190 243.0773 14.18871199975119"}}, "geometry": {"type": "Point", "coordinates": [-139.94824103445404, 24.78997402828955]}}, {"type": "Feature", "properties": {"norad_id": 29912, "name": "FENGYUN 1C DEB", "group": "fengyun-1c-debris", "lat": -63.422739790427926, "lon": 108.49640501031578, "alt_km": 757.801211651733, "timestamp": "2025-12-18T23:35:49.332525+00:00", "meta": {"OBJECT_NAME": "FENGYUN 1C DEB", "OBJECT_ID": "1999-025HJ", "EPOCH": "2025-12-18T05:50:52.090080", "MEAN_MOTION": 14.4305697, "ECCENTRICITY": 0.00431834, "INCLINATION": 98.7393, "RA_OF_ASC_NODE": 89.8306, "ARG_OF_PERICENTER": 203.0324, "MEAN_ANOMALY": 211.9509, "EPHEMERIS_TYPE": 0, "CLASSIFICATION_TYPE": "U", "NORAD_CAT_ID": 29912, "ELEMENT_SET_NO": 999, "REV_AT_EPOCH": 98118, "BSTAR": 0.0017917339, "MEAN_MOTION_DOT": 6.032e-05, "MEAN_MOTION_DDOT": 0}, "tle": {"line1": "1 29912U 99025HJ  25352.24365845  .00006032  00000+0  17917-2 0  9999", "line2": "2 29912  98.7393  89.8306 0043183 203.0324 211.9509 14.43056970981184"}}, "geometry": {"type": "Point", "coordinates": [108.49640501031578, -63.422739790427926]}}, {"type": "Feature", "properties": {"norad_id": 29913, "name": "FENGYUN 1C DEB", "group": "fengyun-1c-debris", "lat": -34.42949391053515, "lon": -2.250254648556877, "alt_km": 860.0393383832761, "timestamp": "2025-12-18T23:35:49.332536+00:00", "meta": {"OBJECT_NAME": "FENGYUN 1C DEB", "OBJECT_ID": "1999-025HK", "EPOCH": "2025-12-18T12:24:49.954176", "MEAN_MOTION": 14.0738954, "ECCENTRICITY": 0.00618609, "INCLINATION": 98.7878, "RA_OF_ASC_NODE": 351.2099, "ARG_OF_PERICENTER": 254.9575, "MEAN_ANOMALY": 230.0263, "EPHEMERIS_TYPE": 0, "CLASSIFICATION_TYPE": "U", "NORAD_CAT_ID": 29913, "ELEMENT_SET_NO": 999, "REV_AT_EPOCH": 97046, "BSTAR": 0.00034731129, "MEAN_MOTION_DOT": 5.51e-06, "MEAN_MOTION_DDOT": 0}, "tle": {"line1": "1 29913U 99025HK  25352.51724484  .00000551  00000+0  34731-3 0  9992", "line2": "2 29913  98.7878 351.2099 0061860 254.9575 230.0263 14.07389540970463"}}, "geometry": {"type": "Point", "coordinates": [-2.250254648556877, -34.42949391053515]}}, {"type": "Feature", "properties": {"norad_id": 29914, "name": "FENGYUN 1C DEB", "group": "fengyun-1c-debris", "lat": 8.775298693346969, "lon": 20.006660527166527, "alt_km": 884.0302293178283, "timestamp": "2025-12-18T23:35:49.332546+00:00", "meta": {"OBJECT_NAME": "FENGYUN 1C DEB", "OBJECT_ID": "1999-025HL", "EPOCH": "2025-12-18T14:00:35.008128", "MEAN_MOTION": 14.0313299, "ECCENTRICITY": 0.0036736, "INCLINATION": 98.8434, "RA_OF_ASC_NODE": 20.9956, "ARG_OF_PERICENTER": 99.0062, "MEAN_ANOMALY": 53.6835, "EPHEMERIS_TYPE": 0, "CLASSIFICATION_TYPE": "U", "NORAD_CAT_ID": 29914, "ELEMENT_SET_NO": 999, "REV_AT_EPOCH": 96868, "BSTAR": -3.3135319e-05, "MEAN_MOTION_DOT": -9.4e-07, "MEAN_MOTION_DDOT": 0}, "tle": {"line1": "1 29914U 99025HL  25352.58373852 -.00000094  00000+0 -33135-4 0  9991", "line2": "2 29914  98.8434  20.9956 0036736  99.0062  53.6835 14.03132990968684"}}, "geometry": {"type": "Point", "coordinates": [20.006660527166527, 8.775298693346969]}}, {"type": "Feature", "properties": {"norad_id": 29916, "name": "FENGYUN 1C DEB", "group": "fengyun-1c-debris", "lat": 53.58970120028992, "lon": -0.8572717299062468, "alt_km": 1241.0188668080054, "timestamp": "2025-12-18T23:35:49.332557+00:00", "meta": {"OBJECT_NAME": "FENGYUN 1C DEB", "OBJECT_ID": "1999-025HN", "EPOCH": "2025-12-18T00:27:22.756032", "MEAN_MOTION": 13.56990637, "ECCENTRICITY": 0.02713377, "INCLINATION": 99.1941, "RA_OF_ASC_NODE": 10.9257, "ARG_OF_PERICENTER": 244.9903, "MEAN_ANOMALY": 141.4537, "EPHEMERIS_TYPE": 0, "CLASSIFICATION_TYPE": "U", "NORAD_CAT_ID": 29916, "ELEMENT_SET_NO": 999, "REV_AT_EPOCH": 93524, "BSTAR": 0.00059217872, "MEAN_MOTION_DOT": 4.92e-06, "MEAN_MOTION_DDOT": 0}, "tle": {"line1": "1 29916U 99025HN  25352.01901338  .00000492  00000+0  59218-3 0  9996", "line2": "2 29916  99.1941  10.9257 0271337 244.9903 141.4537 13.56990637935247"}}, "geometry": {"type": "Point", "coordinates": [-0.8572717299062468, 53.58970120028992]}}, {"type": "Feature", "properties": {"norad_id": 29917, "name": "FENGYUN 1C DEB", "group": "fengyun-1c-debris", "lat": 79.9370003224216, "lon": 152.43341973303086, "alt_km": 838.0559144433637, "timestamp": "2025-12-18T23:35:49.332568+00:00", "meta": {"OBJECT_NAME": "FENGYUN 1C DEB", "OBJECT_ID": "1999-025HP", "EPOCH": "2025-12-18T10:01:15.195072", "MEAN_MOTION": 13.70425104, "ECCENTRICITY": 0.02231223, "INCLINATION": 98.8765, "RA_OF_ASC_NODE": 213.6246, "ARG_OF_PERICENTER": 109.2884, "MEAN_ANOMALY": 67.6637, "EPHEMERIS_TYPE": 0, "CLASSIFICATION_TYPE": "U", "NORAD_CAT_ID": 29917, "ELEMENT_SET_NO": 999, "REV_AT_EPOCH": 94208, "BSTAR": 0.00111735, "MEAN_MOTION_DOT": 1.141e-05, "MEAN_MOTION_DDOT": 0}, "tle": {"line1": "1 29917U 99025HP  25352.41753698  .00001141  00000+0  11173-2 0  9994", "line2": "2 29917  98.8765 213.6246 0223122 109.2884  67.6637 13.70425104942086"}}, "geometry": {"type": "Point", "coordinates": [152.43341973303086, 79.9370003224216]}}, {"type": "Feature", "properties": {"norad_id": 29918, "name": "FENGYUN 1C DEB", "group": "fengyun-1c-debris", "lat": -70.98019417833935, "lon": -131.3231869719328, "alt_km": 779.9898140793521, "timestamp": "2025-12-18T23:35:49.332578+00:00", "meta": {"OBJECT_NAME": "FENGYUN 1C DEB", "OBJECT_ID": "1999-025HQ", "EPOCH": "2025-12-18T05:58:47.680608", "MEAN_MOTION": 14.3364144, "ECCENTRICITY": 0.00131401, "INCLINATION": 98.8549, "RA_OF_ASC_NODE": 74.8128, "ARG_OF_PERICENTER": 298.6404, "MEAN_ANOMALY": 128.1777, "EPHEMERIS_TYPE": 0, "CLASSIFICATION_TYPE": "U", "NORAD_CAT_ID": 29918, "ELEMENT_SET_NO": 999, "REV_AT_EPOCH": 97873, "BSTAR": 0.0011684038, "MEAN_MOTION_DOT": 3.196e-05, "MEAN_MOTION_DDOT": 0}, "tle": {"line1": "1 29918U 99025HQ  25352.24916297  .00003196  00000+0  11684-2 0  9991", "line2": "2 29918  98.8549  74.8128 0013140 298.6404 128.1777 14.33641440978733"}}, "geometry": {"type": "Point", "coordinates": [-131.3231869719328, -70.98019417833935]}}]}